OTTER                   
1 62623U 25009Q   26068.72300813  .00012198  00000+0  45151-3 0  9990
2 62623  97.4065 151.3812 0003573 310.7710  49.3219 15.27809545 63722
STARLINK-33628          
1 63067U 25035R   26068.27333708  .00023021  00000+0  84325-3 0  9994
2 63067  42.9927 149.6335 0002593 157.1394 202.9573 15.27586768 59666
